[{"OBJECT_NAME":"SHIYAN-6 01 (SY-6 01)","OBJECT_ID":"2018-094B","EPOCH":"2026-03-09T23:04:36.967872","MEAN_MOTION":15.28649156,"ECCENTRICITY":0.00144834,"INCLINATION":97.3669,"RA_OF_ASC_NODE":84.0964,"ARG_OF_PERICENTER":135.6758,"MEAN_ANOMALY":224.5644,"EPHEMERIS_TYPE":0,"CLASSIFICATION_TYPE":"U","NORAD_CAT_ID":43711,"ELEMENT_SET_NO":999,"REV_AT_EPOCH":40632,"BSTAR":0.00024768444,"MEAN_MOTION_DOT":6.847e-5,"MEAN_MOTION_DDOT":0},{"OBJECT_NAME":"STARLINK-33757","OBJECT_ID":"2025-087Z","EPOCH":"2026-03-09T15:39:11.029536","MEAN_MOTION":15.30267191,"ECCENTRICITY":0.00018225,"INCLINATION":53.1586,"RA_OF_ASC_NODE":219.7392,"ARG_OF_PERICENTER":109.882,"MEAN_ANOMALY":250.2378,"EPHEMERIS_TYPE":0,"CLASSIFICATION_TYPE":"U","NORAD_CAT_ID":63720,"ELEMENT_SET_NO":999,"REV_AT_EPOCH":4919,"BSTAR":0.0028145315,"MEAN_MOTION_DOT":0.00084123,"MEAN_MOTION_DDOT":0}]
